{"spkid": "50840821", "covariance": {"labels": ["e", "q", "tp", "node", "peri", "i"], "elements": [{"title": "eccentricity", "value": ".2435426817658556", "units": null, "sigma": 2.53000785108095e-08, "name": "e", "label": "e"}, {"name": "q", "sigma": 1.68358640804393e-08, "value": ".9996915707054642", "title": "perihelion distance", "units": "au", "label": "q"}, {"label": "tp", "name": "tp", "sigma": 1.24306608254512e-05, "units": "TDB", "title": "time of perihelion passage", "value": "2458623.793672258220"}, {"label": "node", "name": "om", "sigma": 3.70307491377265e-05, "title": "longitude of the ascending node", "value": "217.1900128703427", "units": "deg"}, {"label": "peri", "units": "deg", "value": "21.63977236775964", "title": "argument of perihelion", "sigma": 3.91183513449783e-05, "name": "w"}, {"label": "i", "title": "inclination", "value": "1.752534602787204", "units": "deg", "name": "i", "sigma": 2.66046148609893e-06}], "data": [["6.400939726531244E-16", "-1.910004160071655E-16", "-8.010541146063198E-15", "-6.518599656976913E-15", "4.120904907838919E-15", "2.769009557409695E-15"], ["-1.910004160071655E-16", "2.834463193350266E-16", "-5.928374611356605E-14", "1.161194913852535E-14", "-7.269725473557811E-14", "5.511406741422047E-16"], ["-8.010541146063198E-15", "-5.928374611356605E-14", "1.545213285574075E-10", "-2.820380863384714E-11", "1.669227089199395E-10", "-9.690886569009666E-13"], ["-6.518599656976913E-15", "1.161194913852535E-14", "-2.820380863384714E-11", "1.371276381701229E-9", "-1.386467154816632E-9", "-7.784965452623198E-12"], ["4.120904907838919E-15", "-7.269725473557811E-14", "1.669227089199395E-10", "-1.386467154816632E-9", "1.530245411949168E-9", "6.60625443714775E-12"], ["2.769009557409695E-15", "5.511406741422047E-16", "-9.690886569009666E-13", "-7.784965452623198E-12", "6.60625443714775E-12", "7.078055319015746E-12"]], "epoch": "2458604.5"}, "elements": [{"label": "e", "name": "e", "sigma": "2.3182E-8", "value": ".2441326512591487", "title": "eccentricity", "units": null}, {"label": "a", "value": "1.322961300863363", "title": "semi-major axis", "units": "au", "name": "a", "sigma": "3.5879E-8"}, {"label": "q", "sigma": "1.6738E-8", "name": "q", "units": "au", "title": "perihelion distance", "value": ".9999832509703378"}, {"label": "i", "value": "1.663528505572627", "title": "inclination; angle with respect to x-y ecliptic plane", "units": "deg", "name": "i", "sigma": "2.6612E-6"}, {"label": "node", "title": "longitude of the ascending node", "value": "215.7245669415936", "units": "deg", "sigma": "3.9157E-5", "name": "om"}, {"label": "peri", "sigma": "4.2345E-5", "name": "w", "value": "22.45288414661903", "title": "argument of perihelion", "units": "deg"}, {"name": "ma", "sigma": "7.0754E-5", "title": "mean anomaly", "value": "230.0748327656463", "units": "deg", "label": "M"}, {"label": "tp", "name": "tp", "sigma": ".00011734", "value": "2461401.090296932809", "title": "time of perihelion passage", "units": "TDB"}, {"label": "period", "units": "d", "title": "sidereal orbital period", "value": "555.8007615688293", "name": "per", "sigma": "2.261E-5"}, {"units": "deg/d", "value": ".6477141178861416", "title": "mean motion", "name": "n", "sigma": "2.635E-8", "label": "n"}, {"label": "Q", "name": "ad", "sigma": "4.4639E-8", "units": "au", "value": "1.645939350756388", "title": "aphelion distance"}], "epoch": "2461200.5"}